{
  "type": "FeatureCollection",
  "features": [
    {
      "type": "Feature",
      "properties": {
        "norad_id": 31225,
        "name": "FENGYUN 1C DEB",
        "group": "fengyun-1c-debris",
        "lat": -4.564280442533892,
        "lon": 62.761648731225286,
        "alt_km": 773.4791777067467,
        "timestamp": "2025-12-14T18:52:55.784571+00:00",
        "meta_object_name": "FENGYUN 1C DEB",
        "meta_object_id": "1999-025BLF",
        "meta_epoch": "2025-12-13T16:31:44.944896",
        "meta_mean_motion": 14.17865231,
        "meta_eccentricity": 0.00880507,
        "meta_inclination": 98.9898,
        "meta_ra_of_asc_node": 60.9263,
        "meta_arg_of_pericenter": 348.6479,
        "meta_mean_anomaly": 165.0343,
        "meta_ephemeris_type": 0,
        "meta_classification_type": "U",
        "meta_norad_cat_id": 31225,
        "meta_element_set_no": 999,
        "meta_rev_at_epoch": 95835,
        "meta_bstar": 0.0016013997,
        "meta_mean_motion_dot": 3.354e-05,
        "meta_mean_motion_ddot": 0,
        "tle_line1": "1 31225U 99025BLF 25347.68871464  .00003354  00000+0  16014-2 0  9991",
        "tle_line2": "2 31225  98.9898  60.9263 0088050 348.6479 165.0343 14.17865231958354"
      },
      "geometry": {
        "type": "Point",
        "coordinates": [
          62.761648731225286,
          -4.564280442533892
        ]
      }
    },
    {
      "type": "Feature",
      "properties": {
        "norad_id": 31226,
        "name": "FENGYUN 1C DEB",
        "group": "fengyun-1c-debris",
        "lat": -43.149675163811395,
        "lon": 160.5964724861242,
        "alt_km": 733.3940314372139,
        "timestamp": "2025-12-14T18:52:55.784581+00:00",
        "meta_object_name": "FENGYUN 1C DEB",
        "meta_object_id": "1999-025BLG",
        "meta_epoch": "2025-12-06T17:57:16.149312",
        "meta_mean_motion": 14.2667576,
        "meta_eccentricity": 0.01264653,
        "meta_inclination": 98.3501,
        "meta_ra_of_asc_node": 340.838,
        "meta_arg_of_pericenter": 213.6965,
        "meta_mean_anomaly": 145.613,
        "meta_ephemeris_type": 0,
        "meta_classification_type": "U",
        "meta_norad_cat_id": 31226,
        "meta_element_set_no": 999,
        "meta_rev_at_epoch": 61968,
        "meta_bstar": 0.00066349543,
        "meta_mean_motion_dot": 1.704e-05,
        "meta_mean_motion_ddot": 0,
        "tle_line1": "1 31226U 99025BLG 25340.74810358  .00001704  00000+0  66350-3 0  9993",
        "tle_line2": "2 31226  98.3501 340.8380 0126465 213.6965 145.6130 14.26675760619688"
      },
      "geometry": {
        "type": "Point",
        "coordinates": [
          160.5964724861242,
          -43.149675163811395
        ]
      }
    },
    {
      "type": "Feature",
      "properties": {
        "norad_id": 31228,
        "name": "FENGYUN 1C DEB",
        "group": "fengyun-1c-debris",
        "lat": -68.1482514447874,
        "lon": -76.42016836743252,
        "alt_km": 824.8395077628948,
        "timestamp": "2025-12-14T18:52:55.784601+00:00",
        "meta_object_name": "FENGYUN 1C DEB",
        "meta_object_id": "1999-025BLJ",
        "meta_epoch": "2025-12-13T16:45:03.040704",
        "meta_mean_motion": 14.36924365,
        "meta_eccentricity": 0.00793542,
        "meta_inclination": 98.8686,
        "meta_ra_of_asc_node": 259.5445,
        "meta_arg_of_pericenter": 83.1785,
        "meta_mean_anomaly": 338.2653,
        "meta_ephemeris_type": 0,
        "meta_classification_type": "U",
        "meta_norad_cat_id": 31228,
        "meta_element_set_no": 999,
        "meta_rev_at_epoch": 97583,
        "meta_bstar": 0.00071573149,
        "meta_mean_motion_dot": 2.15e-05,
        "meta_mean_motion_ddot": 0,
        "tle_line1": "1 31228U 99025BLJ 25347.69795186  .00002150  00000+0  71573-3 0  9996",
        "tle_line2": "2 31228  98.8686 259.5445 0079354  83.1785 338.2653 14.36924365975832"
      },
      "geometry": {
        "type": "Point",
        "coordinates": [
          -76.42016836743252,
          -68.1482514447874
        ]
      }
    },
    {
      "type": "Feature",
      "properties": {
        "norad_id": 31229,
        "name": "FENGYUN 1C DEB",
        "group": "fengyun-1c-debris",
        "lat": -23.323218916666136,
        "lon": 67.96603153420978,
        "alt_km": 797.7551228902494,
        "timestamp": "2025-12-14T18:52:55.784613+00:00",
        "meta_object_name": "FENGYUN 1C DEB",
        "meta_object_id": "1999-025BLK",
        "meta_epoch": "2025-12-13T15:58:11.455968",
        "meta_mean_motion": 14.21827388,
        "meta_eccentricity": 0.00531181,
        "meta_inclination": 98.8675,
        "meta_ra_of_asc_node": 62.9799,
        "meta_arg_of_pericenter": 293.9745,
        "meta_mean_anomaly": 65.5875,
        "meta_ephemeris_type": 0,
        "meta_classification_type": "U",
        "meta_norad_cat_id": 31229,
        "meta_element_set_no": 999,
        "meta_rev_at_epoch": 96097,
        "meta_bstar": 0.0017848432,
        "meta_mean_motion_dot": 3.943e-05,
        "meta_mean_motion_ddot": 0,
        "tle_line1": "1 31229U 99025BLK 25347.66541037  .00003943  00000+0  17848-2 0  9993",
        "tle_line2": "2 31229  98.8675  62.9799 0053118 293.9745  65.5875 14.21827388960972"
      },
      "geometry": {
        "type": "Point",
        "coordinates": [
          67.96603153420978,
          -23.323218916666136
        ]
      }
    },
    {
      "type": "Feature",
      "properties": {
        "norad_id": 31231,
        "name": "FENGYUN 1C DEB",
        "group": "fengyun-1c-debris",
        "lat": 25.195754983679517,
        "lon": 143.91329315979576,
        "alt_km": 612.9129462894825,
        "timestamp": "2025-12-14T18:52:55.784624+00:00",
        "meta_object_name": "FENGYUN 1C DEB",
        "meta_object_id": "1999-025BLM",
        "meta_epoch": "2025-12-10T17:07:20.657856",
        "meta_mean_motion": 14.75448161,
        "meta_eccentricity": 0.01463394,
        "meta_inclination": 98.8622,
        "meta_ra_of_asc_node": 143.661,
        "meta_arg_of_pericenter": 112.7421,
        "meta_mean_anomaly": 248.9327,
        "meta_ephemeris_type": 0,
        "meta_classification_type": "U",
        "meta_norad_cat_id": 31231,
        "meta_element_set_no": 999,
        "meta_rev_at_epoch": 62991,
        "meta_bstar": 0.0049834558,
        "meta_mean_motion_dot": 0.00040479,
        "meta_mean_motion_ddot": 0,
        "tle_line1": "1 31231U 99025BLM 25344.71343354  .00040479  00000+0  49835-2 0  9997",
        "tle_line2": "2 31231  98.8622 143.6610 0146339 112.7421 248.9327 14.75448161629915"
      },
      "geometry": {
        "type": "Point",
        "coordinates": [
          143.91329315979576,
          25.195754983679517
        ]
      }
    },
    {
      "type": "Feature",
      "properties": {
        "norad_id": 31234,
        "name": "FENGYUN 1C DEB",
        "group": "fengyun-1c-debris",
        "lat": -19.33610502700251,
        "lon": 159.6252248474162,
        "alt_km": 822.0583061146108,
        "timestamp": "2025-12-14T18:52:55.784634+00:00",
        "meta_object_name": "FENGYUN 1C DEB",
        "meta_object_id": "1999-025BLQ",
        "meta_epoch": "2025-12-08T16:58:03.836640",
        "meta_mean_motion": 14.08010887,
        "meta_eccentricity": 0.00729408,
        "meta_inclination": 98.7836,
        "meta_ra_of_asc_node": 336.8196,
        "meta_arg_of_pericenter": 238.3597,
        "meta_mean_anomaly": 121.0443,
        "meta_ephemeris_type": 0,
        "meta_classification_type": "U",
        "meta_norad_cat_id": 31234,
        "meta_element_set_no": 999,
        "meta_rev_at_epoch": 72663,
        "meta_bstar": 0.00057434574,
        "meta_mean_motion_dot": 9.57e-06,
        "meta_mean_motion_ddot": 0,
        "tle_line1": "1 31234U 99025BLQ 25342.70698885  .00000957  00000+0  57435-3 0  9992",
        "tle_line2": "2 31234  98.7836 336.8196 0072940 238.3597 121.0443 14.08010887726637"
      },
      "geometry": {
        "type": "Point",
        "coordinates": [
          159.6252248474162,
          -19.33610502700251
        ]
      }
    },
    {
      "type": "Feature",
      "properties": {
        "norad_id": 31235,
        "name": "FENGYUN 1C DEB",
        "group": "fengyun-1c-debris",
        "lat": -76.63855992109278,
        "lon": -81.88335929690803,
        "alt_km": 893.4623722600254,
        "timestamp": "2025-12-14T18:52:55.784644+00:00",
        "meta_object_name": "FENGYUN 1C DEB",
        "meta_object_id": "1999-025BLR",
        "meta_epoch": "2025-12-10T15:28:40.631808",
        "meta_mean_motion": 14.18570013,
        "meta_eccentricity": 0.0179703,
        "meta_inclination": 98.4683,
        "meta_ra_of_asc_node": 133.0053,
        "meta_arg_of_pericenter": 28.2591,
        "meta_mean_anomaly": 332.8195,
        "meta_ephemeris_type": 0,
        "meta_classification_type": "U",
        "meta_norad_cat_id": 31235,
        "meta_element_set_no": 999,
        "meta_rev_at_epoch": 63137,
        "meta_bstar": 0.0039892,
        "meta_mean_motion_dot": 9.663e-05,
        "meta_mean_motion_ddot": 0,
        "tle_line1": "1 31235U 99025BLR 25344.64491472  .00009663  00000+0  39892-2 0  9990",
        "tle_line2": "2 31235  98.4683 133.0053 0179703  28.2591 332.8195 14.18570013631374"
      },
      "geometry": {
        "type": "Point",
        "coordinates": [
          -81.88335929690803,
          -76.63855992109278
        ]
      }
    }
  ]
}